{
    "links": {
        "self": "http://www.neowsapp.com/rest/v1/neo/3378563?api_key=iIulBulltgU6a56xZRHN4H3l9WmuAYTsLGpBGhQ2"
    },
    "id": "3378563",
    "neo_reference_id": "3378563",
    "name": "(2007 MQ)",
    "designation": "2007 MQ",
    "nasa_jpl_url": "http://ssd.jpl.nasa.gov/sbdb.cgi?sstr=3378563",
    "absolute_magnitude_h": 23.6,
    "estimated_diameter": {
        "kilometers": {
            "estimated_diameter_min": 0.0506471459,
            "estimated_diameter_max": 0.1132504611
        },
        "meters": {
            "estimated_diameter_min": 50.6471458835,
            "estimated_diameter_max": 113.2504610618
        },
        "miles": {
            "estimated_diameter_min": 0.0314706677,
            "estimated_diameter_max": 0.0703705522
        },
        "feet": {
            "estimated_diameter_min": 166.1651821003,
            "estimated_diameter_max": 371.5566426699
        }
    },
    "is_potentially_hazardous_asteroid": false,
    "close_approach_data": [
        {
            "close_approach_date": "2007-06-21",
            "close_approach_date_full": "2007-Jun-21 02:26",
            "epoch_date_close_approach": 1182392760000,
            "relative_velocity": {
                "kilometers_per_second": "20.5189062885",
                "kilometers_per_hour": "73868.0626385903",
                "miles_per_hour": "45898.7414767396"
            },
            "miss_distance": {
                "astronomical": "0.0180538849",
                "lunar": "7.0229612261",
                "kilometers": "2700822.726265163",
                "miles": "1678213.4223107294"
            },
            "orbiting_body": "Earth"
        }
    ],
    "orbital_data": {
        "orbit_id": "10",
        "orbit_determination_date": "2017-04-06 09:06:21",
        "first_observation_date": "2007-06-18",
        "last_observation_date": "2007-06-21",
        "data_arc_in_days": 3,
        "observations_used": 46,
        "orbit_uncertainty": "8",
        "minimum_orbit_intersection": ".0121349",
        "jupiter_tisserand_invariant": "3.054",
        "epoch_osculation": "2454270.5",
        "eccentricity": ".7386428851194679",
        "semi_major_axis": "2.442675213435086",
        "inclination": "1.674607251173822",
        "ascending_node_longitude": "112.5556259772607",
        "orbital_period": "1394.430955056075",
        "perihelion_distance": ".6384105463735823",
        "perihelion_argument": "238.6419818867091",
        "aphelion_distance": "4.246939880496591",
        "perihelion_time": "2454318.335223717216",
        "mean_anomaly": "347.6503885145713",
        "mean_motion": ".2581698281257124",
        "equinox": "J2000",
        "orbit_class": {
            "orbit_class_type": "APO",
            "orbit_class_description": "Near-Earth asteroid orbits which cross the Earth’s orbit similar to that of 1862 Apollo",
            "orbit_class_range": "a (semi-major axis) > 1.0 AU; q (perihelion) < 1.017 AU"
        }
    },
    "is_sentry_object": false
}